COSMOS 2251 DEB         
1 34010U 93036GV  17345.85642569  .00000855  00000-0  21768-3 0  9999
2 34010  74.0240 127.0494 0028428 261.0185 222.9611 14.51997725465627
